IRIDIUM 150             
1 43257U 18030J   26002.44790997  .00000076  00000+0  19940-4 0  9991
2 43257  86.3968 359.7488 0002249  87.4855 272.6599 14.34217320406402
IRIDIUM 143             
1 43258U 18030K   26002.49864975 -.00000034  00000+0 -19378-4 0  9996
2 43258  86.3971 359.8141 0002282  86.6540 273.4917 14.34215845406349
IRIDIUM 161             
1 43478U 18047C   26002.81494340  .00000787  00000+0  22799-3 0  9992
2 43478  86.4521 157.5803 0001706  96.5892 263.5503 14.43277565401289
IRIDIUM 152             
1 43479U 18047D   26002.82021177  .00000561  00000+0  19313-3 0  9996
2 43479  86.3998 157.4389 0001898  96.8991 263.2421 14.34221747398787
IRIDIUM 147             
1 43480U 18047E   26002.82655806  .00000611  00000+0  21121-3 0  9996
2 43480  86.4000 157.4387 0002033  90.6682 269.4747 14.34219341398789
IRIDIUM 110             
1 43481U 18047F   26002.83289450  .00000012  00000+0 -27773-5 0  9993
2 43481  86.4005 157.5236 0001449 104.2274 255.9083 14.34217674398777
IRIDIUM 162             
1 43482U 18047G   26002.80863926  .00000780  00000+0  22599-3 0  9997
2 43482  86.4522 157.4762 0002195 101.0199 259.1249 14.43272038401270
IRIDIUM 160             
1 43569U 18061A   26002.77873146  .00000201  00000+0  64782-4 0  9999
2 43569  86.3995 125.9652 0001813  95.7998 264.3405 14.34218256389661
